NOAA-16
1 26536U 00055A   10160.71811034 -.00000085  00000-0 -20910-4 0 08827
2 26536 099.1700 178.0110 0010624 003.8563 356.2663 14.12561940500779
NOAA-17
1 27453U 02032A   10160.90026208  .00000033  00000-0  32318-4 0 08854
2 27453 098.4320 211.6370 0012190 154.2926 205.8852 14.24163911413663
NOAA-18
1 28654U 05018A   10160.92746329 -.00000069  00000-0 -13288-4 0 03693
2 28654 098.9495 107.2121 0015361 074.7500 285.5396 14.11360966260412
NOAA-19
1 33591U 09005A   10160.91384891  .00000012  00000-0  30658-4 0 05665
2 33591 098.7874 103.1888 0013395 313.1838 046.8253 14.11057708068885
HUBBLE
1 20580U 90037B   10160.79995157  .00000418  00000-0  19150-4 0  5825
2 20580 028.4719 288.0856 0003457 118.4019 241.6867 15.00984670903644
ISS
1 25544U 98067A   10161.90293064  .00007708  00000-0  62806-4 0  3028
2 25544 051.6490 262.7699 0008898 308.1047 157.6396 15.71753274662489
CO-58
1 28895U 05043F   10160.71634712  .00000240  00000-0  59432-4 0 06050
2 28895 098.0195 045.4427 0016956 312.2023 047.7722 14.59899315245893
FALCON
1 30776U 07006E   10160.97743164  .00000552  00000-0  42470-4 0 08627
2 30776 035.4324 088.0623 0000206 065.3692 294.7038 15.03682396178970
MAST
1 31126U 07012K   10160.64982582  .00000172  00000-0  49506-4 0  8857
2 31126 097.9386 203.0516 0093449 249.6562 109.4577 14.53592720166966
CAPE1
1 31130U 07012P   10160.69416796 -.00000065  00000-0 -39727-5 0 09079
2 31130 097.9390 200.5166 0100945 257.4990 101.4837 14.52183650166576
COMPASS
1 32787U 08021E   10161.68648677  .00000489  00000-0  68394-4 0  6946
2 32787 097.8947 226.5333 0015208 310.5041 049.4835 14.81884809114535
AAUSAT2
1 32788U 08021F   10160.81245953  .00000857  00000-0  11452-3 0 06874
2 32788 097.8939 225.7965 0014631 314.2990 045.7090 14.82029147114418
DO-64
1 32789U 08021G   10160.68706536  .00000833  00000-0  11107-3 0 07062
2 32789 097.9016 226.1377 0014658 312.4636 047.5328 14.82168702114396
CO-66
1 32791U 08021J   10160.22174888  .00000492  00000-0  69202-4 0 06873
2 32791 097.8956 225.1043 0015527 313.6341 046.3605 14.81668449114276
RS-30
1 32953U 08025A   10161.69018581  .00000010  00000-0  00000 0 0  7723
2 32953 082.5020 033.7199 0019639 114.0272 246.2865 12.43005411 92935
TACSAT-3
1 35001U 09028A   10161.69839826  .00002425  00000-0  61112-4 0  3079
2 35001 040.4586 253.0855 0022197 315.1050 044.7969 15.41768713 59637
PHARMSAT
1 35002U 09028B   10160.61836671  .00002392  00000-0  59206-4 0  2901
2 35002 040.4689 257.5982 0025620 312.0691 047.7949 15.42292272 59480
