Satellite: NOAA-16
Catalog number: 26536
Epoch time:      10160.71811034
Element set:    0882
Inclination:      099.1700 deg
RA of node:       178.0110 deg
Eccentricity:    0.0010624
Arg of perigee:   003.8563 deg
Mean anomaly:     356.2663 deg
Mean motion:   14.12561940 rev/day
Decay rate:       -8.5e-07 rev/day^2
Epoch rev:           50077
Checksum:              270

Satellite: NOAA-17
Catalog number: 27453
Epoch time:      10160.90026208
Element set:    0885
Inclination:      098.4320 deg
RA of node:       211.6370 deg
Eccentricity:    0.0012190
Arg of perigee:   154.2926 deg
Mean anomaly:     205.8852 deg
Mean motion:   14.24163911 rev/day
Decay rate:        3.3e-07 rev/day^2
Epoch rev:           41366
Checksum:              272

Satellite: NOAA-18
Catalog number: 28654
Epoch time:      10160.92746329
Element set:    0369
Inclination:      098.9495 deg
RA of node:       107.2121 deg
Eccentricity:    0.0015361
Arg of perigee:   074.7500 deg
Mean anomaly:     285.5396 deg
Mean motion:   14.11360966 rev/day
Decay rate:       -6.9e-07 rev/day^2
Epoch rev:           26041
Checksum:              314

Satellite: NOAA-19
Catalog number: 33591
Epoch time:      10160.91384891
Element set:    0566
Inclination:      098.7874 deg
RA of node:       103.1888 deg
Eccentricity:    0.0013395
Arg of perigee:   313.1838 deg
Mean anomaly:     046.8253 deg
Mean motion:   14.11057708 rev/day
Decay rate:        1.2e-07 rev/day^2
Epoch rev:           06888
Checksum:              325

/EX
SB KEPS @ AMSAT  $ORB10161.M
Orbital Elements  10161.MISC

HR AMSAT ORBITAL ELEMENTS FOR MANNED AND MISCELLANEOUS SATELLITES
FROM WA5QGD FORT WORTH,TX June 10, 2010
Send Subscribe/unsubscribe to KEPS at http://www.amsat.org/mailman/listinfo/keps
BID: ORB10161.M
TO ALL RADIO AMATEURS BT

Satellite: HUBBLE
Catalog number: 20580
Epoch time:      10160.79995157
Element set:     582
Inclination:      028.4719 deg
RA of node:       288.0856 deg
Eccentricity:    0.0003457
Arg of perigee:   118.4019 deg
Mean anomaly:     241.6867 deg
Mean motion:   15.00984670 rev/day
Decay rate:       4.18e-06 rev/day^2
Epoch rev:           90364
Checksum:              319

Satellite: ISS
Catalog number: 25544
Epoch time:      10161.90293064
Element set:     302
Inclination:      051.6490 deg
RA of node:       262.7699 deg
Eccentricity:    0.0008898
Arg of perigee:   308.1047 deg
Mean anomaly:     157.6396 deg
Mean motion:   15.71753274 rev/day
Decay rate:      7.708e-05 rev/day^2
Epoch rev:           66248
Checksum:              324

Satellite: CO-58
Catalog number: 28895
Epoch time:      10160.71634712
Element set:    0605
Inclination:      098.0195 deg
RA of node:       045.4427 deg
Eccentricity:    0.0016956
Arg of perigee:   312.2023 deg
Mean anomaly:     047.7722 deg
Mean motion:   14.59899315 rev/day
Decay rate:       2.40e-06 rev/day^2
Epoch rev:           24589
Checksum:              320

Satellite: FALCON
Catalog number: 30776
Epoch time:      10160.97743164
Element set:    0862
Inclination:      035.4324 deg
RA of node:       088.0623 deg
Eccentricity:    0.0000206
Arg of perigee:   065.3692 deg
Mean anomaly:     294.7038 deg
Mean motion:   15.03682396 rev/day
Decay rate:       5.52e-06 rev/day^2
Epoch rev:           17897
Checksum:              304

Satellite: MAST
Catalog number: 31126
Epoch time:      10160.64982582
Element set:     885
Inclination:      097.9386 deg
RA of node:       203.0516 deg
Eccentricity:    0.0093449
Arg of perigee:   249.6562 deg
Mean anomaly:     109.4577 deg
Mean motion:   14.53592720 rev/day
Decay rate:       1.72e-06 rev/day^2
Epoch rev:           16696
Checksum:              326

Satellite: CAPE1
Catalog number: 31130
Epoch time:      10160.69416796
Element set:    0907
Inclination:      097.9390 deg
RA of node:       200.5166 deg
Eccentricity:    0.0100945
Arg of perigee:   257.4990 deg
Mean anomaly:     101.4837 deg
Mean motion:   14.52183650 rev/day
Decay rate:       -6.5e-07 rev/day^2
Epoch rev:           16657
Checksum:              299

Satellite: COMPASS
Catalog number: 32787
Epoch time:      10161.68648677
Element set:     694
Inclination:      097.8947 deg
RA of node:       226.5333 deg
Eccentricity:    0.0015208
Arg of perigee:   310.5041 deg
Mean anomaly:     049.4835 deg
Mean motion:   14.81884809 rev/day
Decay rate:       4.89e-06 rev/day^2
Epoch rev:           11453
Checksum:              333

Satellite: AAUSAT2
Catalog number: 32788
Epoch time:      10160.81245953
Element set:    0687
Inclination:      097.8939 deg
RA of node:       225.7965 deg
Eccentricity:    0.0014631
Arg of perigee:   314.2990 deg
Mean anomaly:     045.7090 deg
Mean motion:   14.82029147 rev/day
Decay rate:       8.57e-06 rev/day^2
Epoch rev:           11441
Checksum:              323

Satellite: DO-64
Catalog number: 32789
Epoch time:      10160.68706536
Element set:    0706
Inclination:      097.9016 deg
RA of node:       226.1377 deg
Eccentricity:    0.0014658
Arg of perigee:   312.4636 deg
Mean anomaly:     047.5328 deg
Mean motion:   14.82168702 rev/day
Decay rate:       8.33e-06 rev/day^2
Epoch rev:           11439
Checksum:              320

Satellite: CO-66
Catalog number: 32791
Epoch time:      10160.22174888
Element set:    0687
Inclination:      097.8956 deg
RA of node:       225.1043 deg
Eccentricity:    0.0015527
Arg of perigee:   313.6341 deg
Mean anomaly:     046.3605 deg
Mean motion:   14.81668449 rev/day
Decay rate:       4.92e-06 rev/day^2
Epoch rev:           11427
Checksum:              320

Satellite: RS-30
Catalog number: 32953
Epoch time:      10161.69018581
Element set:     772
Inclination:      082.5020 deg
RA of node:       033.7199 deg
Eccentricity:    0.0019639
Arg of perigee:   114.0272 deg
Mean anomaly:     246.2865 deg
Mean motion:   12.43005411 rev/day
Decay rate:        1.0e-07 rev/day^2
Epoch rev:            9293
Checksum:              271

Satellite: TACSAT-3
Catalog number: 35001
Epoch time:      10161.69839826
Element set:     307
Inclination:      040.4586 deg
RA of node:       253.0855 deg
Eccentricity:    0.0022197
Arg of perigee:   315.1050 deg
Mean anomaly:     044.7969 deg
Mean motion:   15.41768713 rev/day
Decay rate:      2.425e-05 rev/day^2
Epoch rev:            5963
Checksum:              300

Satellite: PHARMSAT
Catalog number: 35002
Epoch time:      10160.61836671
Element set:     290
Inclination:      040.4689 deg
RA of node:       257.5982 deg
Eccentricity:    0.0025620
Arg of perigee:   312.0691 deg
Mean anomaly:     047.7949 deg
Mean motion:   15.42292272 rev/day
Decay rate:      2.392e-05 rev/day^2
Epoch rev:            5948
Checksum:              299

